[{"OBJECT_NAME":"ION SCV-008","OBJECT_ID":"2023-001AU","EPOCH":"2026-03-09T19:46:58.662912","MEAN_MOTION":15.2722664,"ECCENTRICITY":0.00151921,"INCLINATION":97.5676,"RA_OF_ASC_NODE":163.606,"ARG_OF_PERICENTER":8.542,"MEAN_ANOMALY":351.6074,"EPHEMERIS_TYPE":0,"CLASSIFICATION_TYPE":"U","NORAD_CAT_ID":55051,"ELEMENT_SET_NO":999,"REV_AT_EPOCH":17616,"BSTAR":0.00031422806,"MEAN_MOTION_DOT":8.336e-5,"MEAN_MOTION_DDOT":0},{"OBJECT_NAME":"STARLINK-36201","OBJECT_ID":"2025-303B","EPOCH":"2026-03-09T01:30:50.944032","MEAN_MOTION":15.2758111,"ECCENTRICITY":0.00026172,"INCLINATION":43.0035,"RA_OF_ASC_NODE":313.8854,"ARG_OF_PERICENTER":255.6496,"MEAN_ANOMALY":104.4066,"EPHEMERIS_TYPE":0,"CLASSIFICATION_TYPE":"U","NORAD_CAT_ID":67164,"ELEMENT_SET_NO":999,"REV_AT_EPOCH":1264,"BSTAR":0.0016085417,"MEAN_MOTION_DOT":0.00044271,"MEAN_MOTION_DDOT":0}]
